NORAD_CAT_ID,OBJECT_NAME,OBJECT_TYPE,EPOCH,MEAN_MOTION,ECCENTRICITY,INCLINATION,RA_OF_ASC_NODE,ARG_OF_PERICENTER,MEAN_ANOMALY,BSTAR,MEAN_MOTION_DOT,MEAN_MOTION_DDOT,TLE_LINE0,TLE_LINE1,TLE_LINE2,SEMIMAJOR_AXIS,PERIOD,APOGEE,PERIGEE,DECAYED
53575.0,STARLINK-4551,PAYLOAD,2022-09-02 14:00:01,15.73208757,0.0001167999999999,53.2163,86.4404,60.8274,126.5264,-0.00021649,-0.00030902,0.0,0 STARLINK-4551,1 53575U 22101BA  22245.58334491 -.00030902  00000-0 -21649-3 0  9994,2 53575  53.2163  86.4404 0001168  60.8274 126.5264 15.73208757  1301,6727.87,91.533,350.521,348.949,0.0
53575.0,STARLINK-4551,PAYLOAD,2022-09-02 20:00:01,15.73180801,0.000139,53.2159,85.2049,51.5539,112.5028,-0.00031297,-0.00044277,0.0,0 STARLINK-4551,1 53575U 22101BA  22245.83334491 -.00044277  00000-0 -31297-3 0  9992,2 53575  53.2159  85.2049 0001390  51.5539 112.5028 15.73180801  2231,6727.95,91.534,350.75,348.88,0.0
53575.0,STARLINK-4551,PAYLOAD,2022-09-02 22:00:01,15.73148216,0.0001478,53.2159,84.79299999999998,52.3489,224.0102,0.00022446,0.00030928,0.0,0 STARLINK-4551,1 53575U 22101BA  22245.91668981  .00030928  00000-0  22446-3 0  9997,2 53575  53.2159  84.7930 0001478  52.3489 224.0102 15.73148216  1307,6728.043000000002,91.536,350.902,348.913,0.0
53575.0,STARLINK-4551,PAYLOAD,2022-09-03 04:00:00,15.73184247,0.0001369,53.2155,83.5551,53.0801,199.8644,-1.7474000000000002e-05,-3.07e-05,0.0,0 STARLINK-4551,1 53575U 22101BA  22246.16667824 -.00003070  00000-0 -17474-4 0  9996,2 53575  53.2155  83.5551 0001369  53.0801 199.8644 15.73184247  2286,6727.94,91.534,350.726,348.884,0.0
53575.0,STARLINK-4551,PAYLOAD,2022-09-03 14:00:01,15.7323256,0.0001225,53.2161,81.4922,60.3016,33.7901,0.00011727,0.00015892,0.0,0 STARLINK-4551,1 53575U 22101BA  22246.58334491  .00015892  00000-0  11727-3 0  9990,2 53575  53.2161  81.4922 0001225  60.3016  33.7901 15.73232560  1308,6727.802,91.531,350.492,348.843,0.0
53575.0,STARLINK-4551,PAYLOAD,2022-09-03 22:00:00,15.7319487,0.0001284999999999,53.2163,79.8447,43.0356,140.0437,0.00035457,0.00049424,0.0,0 STARLINK-4551,1 53575U 22101BA  22246.91667824  .00049424  00000-0  35457-3 0  9990,2 53575  53.2163  79.8447 0001285  43.0356 140.0437 15.73194870  1301,6727.91,91.533,350.639,348.91,0.0
53575.0,STARLINK-4551,PAYLOAD,2022-09-04 12:00:00,15.73242516,0.0001181,53.2163,76.9557,52.0944,196.6624,-5.2835e-05,-8.041e-05,0.0,0 STARLINK-4551,1 53575U 22101BA  22247.50001157 -.00008041  00000-0 -52835-4 0  9999,2 53575  53.2163  76.9557 0001181  52.0944 196.6624 15.73242516  2496,6727.774,91.531,350.434,348.844,0.0
53575.0,STARLINK-4551,PAYLOAD,2022-09-04 14:00:01,15.73249453,0.0001215,53.2164,76.5438,51.6043,309.4611,-0.00020942,-0.00029968,0.0,0 STARLINK-4551,1 53575U 22101BA  22247.58335648 -.00029968  00000-0 -20942-3 0  9996,2 53575  53.2164  76.5438 0001215  51.6043 309.4611 15.73249453  1311,6727.754,91.53,350.43699999999984,348.802,0.0
53575.0,STARLINK-4551,PAYLOAD,2022-09-04 20:00:01,15.7327436,0.0001375,53.216,75.3082,43.4982,294.2625,-0.00068395,-0.00095826,0.0,0 STARLINK-4551,1 53575U 22101BA  22247.83334491 -.00095826  00000-0 -68395-3 0  9999,2 53575  53.2160  75.3082 0001375  43.4982 294.2625 15.73274360  1307,6727.683000000001,91.529,350.473,348.62300000000016,0.0
53575.0,STARLINK-4551,PAYLOAD,2022-09-05 14:00:01,15.73248367,0.0001325,53.2159,71.5952,53.7654,214.1645,-0.0005618,-0.00078892,0.0,0 STARLINK-4551,1 53575U 22101BA  22248.58334491 -.00078892  00000-0 -56180-3 0  9995,2 53575  53.2159  71.5952 0001325  53.7654 214.1645 15.73248367  1305,6727.757,91.53,350.514,348.731,0.0
53575.0,STARLINK-4551,PAYLOAD,2022-09-05 20:00:01,15.73177565,0.0001568,53.2159,70.3598,47.9362,196.6856,-0.00058755,-0.00082202,0.0,0 STARLINK-4551,1 53575U 22101BA  22248.83334491 -.00082202  00000-0 -58755-3 0  9993,2 53575  53.2159  70.3598 0001568  47.9362 196.6856 15.73177565  2702,6727.959,91.534,350.879,348.769,0.0
53575.0,STARLINK-4551,PAYLOAD,2022-09-06 04:00:00,15.73125238,0.0001553,53.2159,68.7093,48.5579,284.9336,0.00018125,0.00024811,0.0,0 STARLINK-4551,1 53575U 22101BA  22249.16667824  .00024811  00000-0  18125-3 0  9996,2 53575  53.2159  68.7093 0001553  48.5579 284.9336 15.73125238  2753,6728.108,91.538,351.01800000000014,348.92800000000005,0.0
53575.0,STARLINK-4551,PAYLOAD,2022-09-06 14:00:01,15.73114776,0.00016,53.2159,66.6471,53.5993,120.9517,0.00033624,0.0004666,0.0,0 STARLINK-4551,1 53575U 22101BA  22249.58334491  .00046660  00000-0  33624-3 0  9990,2 53575  53.2159  66.6471 0001600  53.5993 120.9517 15.73114776  1304,6728.138000000001,91.538,351.08,348.927,0.0
53575.0,STARLINK-4551,PAYLOAD,2022-09-06 22:00:00,15.73187074,0.0001629,53.2154,64.9996,42.948,220.4481,1.0878e-06,-4.68e-06,0.0,0 STARLINK-4551,1 53575U 22101BA  22249.91667824 -.00000468  00000-0  10878-5 0  9991,2 53575  53.2154  64.9996 0001629  42.9480 220.4481 15.73187074  1303,6727.932,91.534,350.89300000000014,348.701,0.0
53575.0,STARLINK-4551,PAYLOAD,2022-09-07 12:00:00,15.73205996,0.000131,53.2154,62.1105,45.8295,283.1645,0.00051843,0.0007279,0.0,0 STARLINK-4551,1 53575U 22101BA  22250.50001157  .00072790  00000-0  51843-3 0  9990,2 53575  53.2154  62.1105 0001310  45.8295 283.1645 15.73205996  2963,6727.878000000002,91.533,350.624,348.862,0.0
53575.0,STARLINK-4551,PAYLOAD,2022-09-07 14:00:01,15.73236006,0.0001371,53.2154,61.6987,44.2472,36.9778,0.0002051,0.00028306,0.0,0 STARLINK-4551,1 53575U 22101BA  22250.58334491  .00028306  00000-0  20510-3 0  9999,2 53575  53.2154  61.6987 0001371  44.2472  36.9778 15.73236006  1306,6727.793000000002,91.531,350.58,348.735,0.0
53575.0,STARLINK-4551,PAYLOAD,2022-09-07 22:00:00,15.73221372,0.0001606,53.2155,60.0507,36.8858,133.3024,0.00012346,0.00016757,0.0,0 STARLINK-4551,1 53575U 22101BA  22250.91667824  .00016757  00000-0  12346-3 0  9990,2 53575  53.2155  60.0507 0001606  36.8858 133.3024 15.73221372  3032,6727.834,91.532,350.78,348.619,0.0
53575.0,STARLINK-4551,PAYLOAD,2022-09-08 14:00:01,15.73202416,0.0001578,53.2174,56.7446,43.7033,304.391,2.2361e-05,2.519e-05,0.0,0 STARLINK-4551,1 53575U 22101BA  22251.58334491  .00002519  00000-0  22361-4 0  9995,2 53575  53.2174  56.7446 0001578  43.7033 304.3910 15.73202416  1307,6727.888000000001,91.533,350.815,348.69199999999995,0.0
53575.0,STARLINK-4551,PAYLOAD,2022-09-08 22:00:00,15.732456699999998,0.0001764,53.215,55.1014,34.257,42.797,-4.8374e-05,-7.418e-05,0.0,0 STARLINK-4551,1 53575U 22101BA  22251.91667824 -.00007418  00000-0 -48374-4 0  9998,2 53575  53.2150  55.1014 0001764  34.2570  42.7970 15.73245670  3190,6727.765,91.531,350.81699999999995,348.4430000000001,0.0
53575.0,STARLINK-4551,PAYLOAD,2022-09-09 14:00:01,15.73240453,0.0001567,53.2154,51.8007,38.7155,216.2633,-0.00055186,-0.00077496,0.0,0 STARLINK-4551,1 53575U 22101BA  22252.58334491 -.00077496  00000-0 -55186-3 0  9994,2 53575  53.2154  51.8007 0001567  38.7155 216.2633 15.73240453  3297,6727.78,91.531,350.699,348.591,0.0
53575.0,STARLINK-4551,PAYLOAD,2022-09-09 22:00:00,15.73177033,0.0001829,53.2155,50.1516,32.2536,311.6712,0.00020711,0.00028517,0.0,0 STARLINK-4551,1 53575U 22101BA  22252.91667824  .00028517  00000-0  20711-3 0  9994,2 53575  53.2155  50.1516 0001829  32.2536 311.6712 15.73177033  1309,6727.9609999999975,91.535,351.056,348.595,0.0
53575.0,STARLINK-4551,PAYLOAD,2022-09-10 04:00:00,15.731995800000002,0.0001653,53.2158,48.9135,34.6399,286.0015,-0.00013276,-0.0001921,0.0,0 STARLINK-4551,1 53575U 22101BA  22253.16667824 -.00019210  00000-0 -13276-3 0  9992,2 53575  53.2158  48.9135 0001653  34.6399 286.0015 15.73199580  3384,6727.896,91.533,350.87300000000016,348.649,0.0
53575.0,STARLINK-4551,PAYLOAD,2022-09-10 14:00:01,15.73185127,0.0001823,53.2158,46.8519,35.8661,125.9188,-0.00031891,-0.00045112,0.0,0 STARLINK-4551,1 53575U 22101BA  22253.58334491 -.00045112  00000-0 -31891-3 0  9992,2 53575  53.2158  46.8519 0001823  35.8661 125.9188 15.73185127  1305,6727.938,91.534,351.029,348.576,0.0
53575.0,STARLINK-4551,PAYLOAD,2022-09-10 22:00:00,15.73202729,0.0001541,53.2172,45.1987,33.7762,216.857,3.0103000000000013e-05,3.607e-05,0.0,0 STARLINK-4551,1 53575U 22101BA  22253.91667824  .00003607  00000-0  30103-4 0  9995,2 53575  53.2172  45.1987 0001541  33.7762 216.8570 15.73202729  1301,6727.887,91.533,350.789,348.716,0.0
53575.0,STARLINK-4551,PAYLOAD,2022-09-11 04:00:00,15.73205766,0.0001443,53.2174,43.9599,37.1181,190.2161,-2.1184e-05,-3.593e-05,0.0,0 STARLINK-4551,1 53575U 22101BA  22254.16667824 -.00003593  00000-0 -21184-4 0  9998,2 53575  53.2174  43.9599 0001443  37.1181 190.2161 15.73205766  3545,6727.879,91.533,350.715,348.773,0.0
53575.0,STARLINK-4551,PAYLOAD,2022-09-11 12:00:00,15.73246278,0.0001795,53.2158,42.315,34.2829,282.0746,-0.00050604,-0.00071186,0.0,0 STARLINK-4551,1 53575U 22101BA  22254.50001157 -.00071186  00000-0 -50604-3 0  9998,2 53575  53.2158  42.3150 0001795  34.2829 282.0746 15.73246278  3597,6727.763000000001,91.53,350.836,348.421,0.0
53575.0,STARLINK-4551,PAYLOAD,2022-09-11 14:00:01,15.73224115,0.000188,53.2157,41.9033,32.833,35.7706,-0.00030364,-0.00043064,0.0,0 STARLINK-4551,1 53575U 22101BA  22254.58334491 -.00043064  00000-0 -30364-3 0  9991,2 53575  53.2157  41.9033 0001880  32.8330  35.7706 15.73224115  1309,6727.826,91.532,350.956,348.427,0.0
53575.0,STARLINK-4551,PAYLOAD,2022-09-11 20:00:01,15.73197063,0.0002079,53.2161,40.6666,30.653,14.658,5.792800000000001e-05,7.515e-05,0.0,0 STARLINK-4551,1 53575U 22101BA  22254.83334491  .00007515  00000-0  57928-4 0  9994,2 53575  53.2161  40.6666 0002079  30.6530  14.6580 15.73197063  3658,6727.904,91.533,351.167,348.37,0.0
53575.0,STARLINK-4551,PAYLOAD,2022-09-11 22:00:00,15.73218136,0.0002065,53.216,40.2536,29.8002,127.7379,-0.00029439,-0.00041768,0.0,0 STARLINK-4551,1 53575U 22101BA  22254.91667824 -.00041768  00000-0 -29439-3 0  9997,2 53575  53.2160  40.2536 0002065  29.8002 127.7379 15.73218136  1305,6727.843000000003,91.532,351.098,348.319,0.0
